GEOSCAN-EDELVEIS (RS20S)
1 53385U 22096R   24020.74745231  .00316387  00000+0  16505-2 0  9990
2 53385  97.3903 299.5847 0004687  75.5886 284.5901 15.80030476 81535
CAS-5A (FO-118)         
1 54684U 22167C   24020.76549445  .00022372  00000+0  99324-3 0  9992
2 54684  97.5838 163.3293 0011342 306.3555  53.6632 15.21512874 61675
STRATOSAT-TK 1 (RS52S)  
1 57167U 23091B   24020.76415185  .00015316  00000+0  10068-2 0  9998
2 57167  97.6365  74.6376 0015542 267.2862  92.6587 15.07586286 31163
UMKA 1 (RS40S)          
1 57172U 23091G   24020.81206984  .00006846  00000+0  47913-3 0  9993
2 57172  97.6374  74.4200 0015874 266.9343  93.0067 15.05487365 31154
CUBESX-HSE 3 (RS42S)    
1 57178U 23091N   24020.79275968  .00008641  00000+0  59436-3 0  9992
2 57178  97.6405  74.5460 0016552 261.1074  98.8279 15.06043693 31157
MONITOR-4 (RS57S)       
1 57182U 23091S   24020.81172456  .00008591  00000+0  59491-3 0  9993
2 57182  97.6398  74.4900 0016957 262.2438  97.6864 15.05788994 31152
MONITOR-2 (RS39S)       
1 57184U 23091U   24020.80189335  .00005205  00000+0  36173-3 0  9999
2 57184  97.6403  74.6685 0012920 254.7810 105.1988 15.05893986 31160
SVYATOBOR 1 (RS60S)     
1 57187U 23091X   24020.80497869  .00007782  00000+0  52687-3 0  9996
2 57187  97.6405  74.8211 0012628 252.4339 107.5509 15.06715526 31178
VIZARD-METEO (RS38S)    
1 57189U 23091Z   24020.79945160  .00009385  00000+0  62081-3 0  9998
2 57189  97.6396  74.9618 0011640 250.2726 109.7246 15.07523759 31189
NANOZOND 1 (RS49S)      
1 57190U 23091AA  24020.78038433  .00012304  00000+0  78606-3 0  9990
2 57190  97.6363  75.0691 0010481 256.8503 103.1556 15.08744356 31197
POLYTECH-UNIVERSE 3 (R*)
1 57191U 23091AB  24020.79558702  .00005488  00000+0  38206-3 0  9995
2 57191  97.6367  74.4367 0018483 273.9876  85.9238 15.05738067 31157
UTMN 2 (RS27S)          
1 57203U 23091AP  24020.82077472  .00009538  00000+0  63532-3 0  9993
2 57203  97.6395  74.9322 0012268 251.0903 108.8995 15.07256135 31182
ARCCUBE 1 (RS25S)       
1 57205U 23091AR  24020.76237624  .00015575  00000+0  98235-3 0  9991
2 57205  97.6346  75.0447 0010833 259.3192 100.6817 15.09156045 31192
KUZGTU 1 (RS47S)        
1 57217U 23091AV  24020.79217352  .00008176  00000+0  56351-3 0  9995
2 57217  97.6381  74.4809 0016435 262.5419  97.3940 15.05989616 31150
HADES-D (SO-121)        
1 58567U 23174CY  24020.18005343  .00032114  00000+0  16380-2 0  9990
2 58567  97.4746  96.9871 0015496  33.7666 326.4550 15.16568502 11114
